{
  "norad_id": 51130,
  "name": "STARLINK-3395",
  "history": [
    {
      "epoch": "2026-03-28T18:09:53.429760Z",
      "apogee_km": 540.7475321643524,
      "perigee_km": 538.7326312855294,
      "latitude_deg": -2.659064773571105e-05,
      "longitude_deg": 114.88551682258509,
      "height_km": 540.0637762701919,
      "semi_major_axis_km": 6917.877081724941,
      "eccentricity": 0.00014563,
      "inclination_deg": 53.2176,
      "raan_deg": 213.5309,
      "arg_perigee_deg": 55.3865,
      "mean_anomaly_deg": 304.7264,
      "mean_motion_rev_day": 15.08841082
    },
    {
      "epoch": "2026-03-30T00:22:12.310464Z",
      "apogee_km": 540.5340774859942,
      "perigee_km": 538.8975902196189,
      "latitude_deg": -2.735663523241452e-05,
      "longitude_deg": 14.912061765069396,
      "height_km": 540.5560754606942,
      "semi_major_axis_km": 6917.852833852807,
      "eccentricity": 0.00011828,
      "inclination_deg": 53.2169,
      "raan_deg": 207.8766,
      "arg_perigee_deg": 86.099,
      "mean_anomaly_deg": 274.0137,
      "mean_motion_rev_day": 15.08849015
    },
    {
      "epoch": "2026-03-30T13:05:18.784320Z",
      "apogee_km": 540.6605018090795,
      "perigee_km": 538.8689036261112,
      "latitude_deg": -2.6849355420500966e-05,
      "longitude_deg": -178.76294044114306,
      "height_km": 540.7049563485041,
      "semi_major_axis_km": 6917.901702717595,
      "eccentricity": 0.00012949,
      "inclination_deg": 53.2168,
      "raan_deg": 205.5009,
      "arg_perigee_deg": 92.8486,
      "mean_anomaly_deg": 267.2654,
      "mean_motion_rev_day": 15.08833027
    },
    {
      "epoch": "2026-03-30T17:51:28.009152Z",
      "apogee_km": 540.6970065856785,
      "perigee_km": 538.8009523964192,
      "latitude_deg": -3.8089775791405846e-06,
      "longitude_deg": 108.6070748398502,
      "height_km": 540.6844287595787,
      "semi_major_axis_km": 6917.885979491049,
      "eccentricity": 0.00013704,
      "inclination_deg": 53.218,
      "raan_deg": 204.6052,
      "arg_perigee_deg": 92.3996,
      "mean_anomaly_deg": 267.7153,
      "mean_motion_rev_day": 15.08838171
    }
  ]
}